{
    "CCSDS_OMM_VERS": "3.0",
    "COMMENT": "GENERATED VIA SPACE-TRACK.ORG API",
    "CREATION_DATE": "2025-11-20T02:25:01",
    "ORIGINATOR": "18 SPCS",
    "OBJECT_NAME": "BEIDOU 7",
    "OBJECT_ID": "2010-068A",
    "CENTER_NAME": "EARTH",
    "REF_FRAME": "TEME",
    "TIME_SYSTEM": "UTC",
    "MEAN_ELEMENT_THEORY": "SGP4",
    "EPOCH": "2025-11-19T19:27:21.716064",
    "MEAN_MOTION": "1.00294299",
    "ECCENTRICITY": "0.00496857",
    "INCLINATION": "47.9309",
    "RA_OF_ASC_NODE": "274.4330",
    "ARG_OF_PERICENTER": "216.9575",
    "MEAN_ANOMALY": "325.8733",
    "EPHEMERIS_TYPE": "0",
    "CLASSIFICATION_TYPE": "U",
    "NORAD_CAT_ID": "37256",
    "ELEMENT_SET_NO": "999",
    "REV_AT_EPOCH": "5469",
    "BSTAR": "0.00000000000000",
    "MEAN_MOTION_DOT": "-0.00000218",
    "MEAN_MOTION_DDOT": "0.0000000000000",
    "SEMIMAJOR_AXIS": "42158.422",
    "PERIOD": "1435.775",
    "APOAPSIS": "35989.754",
    "PERIAPSIS": "35570.820",
    "OBJECT_TYPE": "PAYLOAD",
    "RCS_SIZE": "LARGE",
    "COUNTRY_CODE": "PRC",
    "LAUNCH_DATE": "2010-12-17",
    "SITE": "XSC",
    "DECAY_DATE": null,
    "FILE": "4889683",
    "GP_ID": "303050522",
    "TLE_LINE0": "0 BEIDOU 7",
    "TLE_LINE1": "1 37256U 10068A   25323.81066801 -.00000218  00000-0  00000-0 0  9995",
    "TLE_LINE2": "2 37256  47.9309 274.4330 0049686 216.9575 325.8733  1.00294299 54699"
}